TIGER-6                 
1 58272U 23174S   26068.73366727  .00113437  00000+0  98002-3 0  9994
2 58272  97.3904 161.9275 0003121 155.9023 204.2385 15.68857868130641
STARLINK-11342 [DTC]    
1 61580U 24187G   26068.87448358 -.00001219  00000+0 -52066-5 0  9999
2 61580  53.1598 295.0243 0000945  72.6516 287.4605 15.69698874 80837
