[{"OBJECT_NAME":"TIGER-6","OBJECT_ID":"2023-174S","EPOCH":"2026-03-09T17:36:28.852992","MEAN_MOTION":15.68857868,"ECCENTRICITY":0.0003121,"INCLINATION":97.3904,"RA_OF_ASC_NODE":161.9275,"ARG_OF_PERICENTER":155.9023,"MEAN_ANOMALY":204.2385,"EPHEMERIS_TYPE":0,"CLASSIFICATION_TYPE":"U","NORAD_CAT_ID":58272,"ELEMENT_SET_NO":999,"REV_AT_EPOCH":13064,"BSTAR":0.00098002434,"MEAN_MOTION_DOT":0.00113437,"MEAN_MOTION_DDOT":0},{"OBJECT_NAME":"STARLINK-11342 [DTC]","OBJECT_ID":"2024-187G","EPOCH":"2026-03-09T20:59:15.381312","MEAN_MOTION":15.69698874,"ECCENTRICITY":9.448e-5,"INCLINATION":53.1598,"RA_OF_ASC_NODE":295.0243,"ARG_OF_PERICENTER":72.6516,"MEAN_ANOMALY":287.4605,"EPHEMERIS_TYPE":0,"CLASSIFICATION_TYPE":"U","NORAD_CAT_ID":61580,"ELEMENT_SET_NO":999,"REV_AT_EPOCH":8083,"BSTAR":-5.206643e-6,"MEAN_MOTION_DOT":-1.219e-5,"MEAN_MOTION_DDOT":0}]
